start=new Date('2022-09-30T00:00:00.000Z').valueOf();
sats=[{"LAUNCH_DATE":"2020-11-25","OBJECT_TYPE":"PAYLOAD","EPOCH":"2022-09-29T17:26:00.806208","CLASSIFICATION_TYPE":"U","RA_OF_ASC_NODE":"164.3445","APOAPSIS":"548.174","CENTER_NAME":"EARTH","REF_FRAME":"TEME","PERIAPSIS":"546.315","TIME_SYSTEM":"UTC","REV_AT_EPOCH":"10266","MEAN_MOTION_DOT":"-0.00000345","EPHEMERIS_TYPE":"0","INCLINATION":"53.0531","SEMIMAJOR_AXIS":"6925.380","MEAN_ELEMENT_THEORY":"SGP4","COUNTRY_CODE":"US","NORAD_CAT_ID":"47144","FILE":"3587117","ARG_OF_PERICENTER":"81.2545","ECCENTRICITY":"0.00013420","BSTAR":"-0.00000428080000","ELEMENT_SET_NO":"999","MEAN_MOTION_DDOT":"0.0000000000000","OBJECT_NAME":"STARLINK-1857","PERIOD":"95.593","SITE":"AFETR","MEAN_MOTION":"15.06389805","OBJECT_ID":"2020-088Y","MEAN_ANOMALY":"278.8596","TLE_LINE2":"2 47144  53.0531 164.3445 0001342  81.2545 278.8596 15.06389805102666","TLE_LINE1":"1 47144U 20088Y   22272.72639822 -.00000345  00000-0 -42808-5 0  9993","GP_ID":"213834633","RCS_SIZE":"LARGE","DECAY_DATE":null},{"DECAY_DATE":null,"RCS_SIZE":"LARGE","GP_ID":"213835885","TLE_LINE1":"1 47147U 20088AB  22272.81670053 -.00002732  00000-0 -16467-3 0  9999","TLE_LINE2":"2 47147  53.0527 183.9410 0001126  95.1986 264.9131 15.06388550102405","MEAN_ANOMALY":"264.9131","OBJECT_ID":"2020-088AB","OBJECT_NAME":"STARLINK-1860","MEAN_MOTION_DDOT":"0.0000000000000","ELEMENT_SET_NO":"999","MEAN_MOTION":"15.06388550","PERIOD":"95.593","SITE":"AFETR","BSTAR":"-0.00016467000000","ARG_OF_PERICENTER":"95.1986","ECCENTRICITY":"0.00011260","FILE":"3587117","COUNTRY_CODE":"US","NORAD_CAT_ID":"47147","SEMIMAJOR_AXIS":"6925.384","INCLINATION":"53.0527","MEAN_ELEMENT_THEORY":"SGP4","TIME_SYSTEM":"UTC","EPHEMERIS_TYPE":"0","REV_AT_EPOCH":"10240","MEAN_MOTION_DOT":"-0.00002732","CENTER_NAME":"EARTH","APOAPSIS":"548.028","PERIAPSIS":"546.469","REF_FRAME":"TEME","EPOCH":"2022-09-29T19:36:02.925792","CLASSIFICATION_TYPE":"U","RA_OF_ASC_NODE":"183.9410","LAUNCH_DATE":"2020-11-25","OBJECT_TYPE":"PAYLOAD"},{"MEAN_MOTION_DDOT":"0.0000000000000","OBJECT_NAME":"STARLINK-1861","ELEMENT_SET_NO":"999","MEAN_MOTION":"15.06401200","SITE":"AFETR","PERIOD":"95.592","BSTAR":"-0.00001793700000","OBJECT_ID":"2020-088AC","TLE_LINE1":"1 47148U 20088AC  22272.79181224 -.00000549  00000-0 -17937-4 0  9992","GP_ID":"213835628","TLE_LINE2":"2 47148  53.0519 174.0623 0001328  75.3528 284.7608 15.06401200102531","MEAN_ANOMALY":"284.7608","DECAY_DATE":null,"RCS_SIZE":"LARGE","RA_OF_ASC_NODE":"174.0623","CLASSIFICATION_TYPE":"U","EPOCH":"2022-09-29T19:00:12.577536","LAUNCH_DATE":"2020-11-25","OBJECT_TYPE":"PAYLOAD","TIME_SYSTEM":"UTC","EPHEMERIS_TYPE":"0","REV_AT_EPOCH":"10253","MEAN_MOTION_DOT":"-0.00000549","CENTER_NAME":"EARTH","APOAPSIS":"548.130","PERIAPSIS":"546.290","REF_FRAME":"TEME","COUNTRY_CODE":"US","NORAD_CAT_ID":"47148","INCLINATION":"53.0519","SEMIMAJOR_AXIS":"6925.345","MEAN_ELEMENT_THEORY":"SGP4","ARG_OF_PERICENTER":"75.3528","ECCENTRICITY":"0.00013280","FILE":"3587117"},{"OBJECT_ID":"2020-088AD","ELEMENT_SET_NO":"999","OBJECT_NAME":"STARLINK-1862","MEAN_MOTION_DDOT":"0.0000000000000","PERIOD":"95.592","SITE":"AFETR","MEAN_MOTION":"15.06394565","BSTAR":"0.00011362000000","DECAY_DATE":null,"RCS_SIZE":"LARGE","TLE_LINE2":"2 47149  53.0537 184.2213 0001152 103.5683 256.5435 15.06394565103127","TLE_LINE1":"1 47149U 20088AD  22272.75403684  .00001411  00000-0  11362-3 0  9998","GP_ID":"213834884","MEAN_ANOMALY":"256.5435","TIME_SYSTEM":"UTC","MEAN_MOTION_DOT":"0.00001411","REV_AT_EPOCH":"10312","EPHEMERIS_TYPE":"0","APOAPSIS":"548.028","CENTER_NAME":"EARTH","REF_FRAME":"TEME","PERIAPSIS":"546.432","EPOCH":"2022-09-29T18:05:48.782976","RA_OF_ASC_NODE":"184.2213","CLASSIFICATION_TYPE":"U","LAUNCH_DATE":"2020-11-25","OBJECT_TYPE":"PAYLOAD","ARG_OF_PERICENTER":"103.5683","ECCENTRICITY":"0.00011520","FILE":"3587117","COUNTRY_CODE":"US","NORAD_CAT_ID":"47149","INCLINATION":"53.0537","SEMIMAJOR_AXIS":"6925.365","MEAN_ELEMENT_THEORY":"SGP4"},{"BSTAR":"-0.00000875070000","ELEMENT_SET_NO":"999","OBJECT_NAME":"STARLINK-1863","MEAN_MOTION_DDOT":"0.0000000000000","PERIOD":"95.593","SITE":"AFETR","MEAN_MOTION":"15.06387304","OBJECT_ID":"2020-088AE","MEAN_ANOMALY":"293.7139","TLE_LINE2":"2 47150  53.0549 173.6497 0001344  66.3991 293.7139 15.06387304102552","TLE_LINE1":"1 47150U 20088AE  22272.88029352 -.00000412  00000-0 -87507-5 0  9998","GP_ID":"213835134","RCS_SIZE":"LARGE","DECAY_DATE":null,"LAUNCH_DATE":"2020-11-25","OBJECT_TYPE":"PAYLOAD","EPOCH":"2022-09-29T21:07:37.360128","RA_OF_ASC_NODE":"173.6497","CLASSIFICATION_TYPE":"U","APOAPSIS":"548.183","CENTER_NAME":"EARTH","REF_FRAME":"TEME","PERIAPSIS":"546.322","TIME_SYSTEM":"UTC","MEAN_MOTION_DOT":"-0.00000412","REV_AT_EPOCH":"10255","EPHEMERIS_TYPE":"0","SEMIMAJOR_AXIS":"6925.387","INCLINATION":"53.0549","MEAN_ELEMENT_THEORY":"SGP4","COUNTRY_CODE":"US","NORAD_CAT_ID":"47150","FILE":"3587117","ARG_OF_PERICENTER":"66.3991","ECCENTRICITY":"0.00013440"},{"CLASSIFICATION_TYPE":"U","EPOCH":"2022-09-29T11:33:03.137184","RA_OF_ASC_NODE":"185.4528","OBJECT_TYPE":"PAYLOAD","LAUNCH_DATE":"2020-11-25","EPHEMERIS_TYPE":"0","MEAN_MOTION_DOT":"-0.00000562","REV_AT_EPOCH":"10259","TIME_SYSTEM":"UTC","PERIAPSIS":"546.303","REF_FRAME":"TEME","CENTER_NAME":"EARTH","APOAPSIS":"548.194","NORAD_CAT_ID":"47151","COUNTRY_CODE":"US","MEAN_ELEMENT_THEORY":"SGP4","SEMIMAJOR_AXIS":"6925.384","INCLINATION":"53.0539","ECCENTRICITY":"0.00013650","ARG_OF_PERICENTER":"83.8729","FILE":"3586717","MEAN_MOTION":"15.06388527","PERIOD":"95.593","SITE":"AFETR","MEAN_MOTION_DDOT":"0.0000000000000","OBJECT_NAME":"STARLINK-1864","ELEMENT_SET_NO":"999","BSTAR":"-0.00001885300000","OBJECT_ID":"2020-088AF","TLE_LINE1":"1 47151U 20088AF  22272.48128631 -.00000562  00000-0 -18853-4 0  9998","GP_ID":"213778431","TLE_LINE2":"2 47151  53.0539 185.4528 0001365  83.8729 276.2415 15.06388527102599","MEAN_ANOMALY":"276.2415","DECAY_DATE":null,"RCS_SIZE":"LARGE"},{"MEAN_ANOMALY":"260.9545","TLE_LINE1":"1 47152U 20088AG  22272.79733837 -.00001524  00000-0 -83493-4 0  9994","GP_ID":"213810844","TLE_LINE2":"2 47152  53.0534 184.0061 0001227  99.1583 260.9545 15.06384469102648","RCS_SIZE":"LARGE","DECAY_DATE":null,"BSTAR":"-0.00008349300000","MEAN_MOTION":"15.06384469","SITE":"AFETR","PERIOD":"95.593","MEAN_MOTION_DDOT":"0.0000000000000","OBJECT_NAME":"STARLINK-1866","ELEMENT_SET_NO":"999","OBJECT_ID":"2020-088AG","MEAN_ELEMENT_THEORY":"SGP4","INCLINATION":"53.0534","SEMIMAJOR_AXIS":"6925.396","NORAD_CAT_ID":"47152","COUNTRY_CODE":"US","FILE":"3587017","ECCENTRICITY":"0.00012270","ARG_OF_PERICENTER":"99.1583","OBJECT_TYPE":"PAYLOAD","LAUNCH_DATE":"2020-11-25","RA_OF_ASC_NODE":"184.0061","EPOCH":"2022-09-29T19:08:10.035168","CLASSIFICATION_TYPE":"U","PERIAPSIS":"546.411","REF_FRAME":"TEME","CENTER_NAME":"EARTH","APOAPSIS":"548.111","EPHEMERIS_TYPE":"0","REV_AT_EPOCH":"10264","MEAN_MOTION_DOT":"-0.00001524","TIME_SYSTEM":"UTC"},{"OBJECT_ID":"2020-088AH","BSTAR":"-0.00000952780000","PERIOD":"95.593","SITE":"AFETR","MEAN_MOTION":"15.06392395","ELEMENT_SET_NO":"999","OBJECT_NAME":"STARLINK-1867","MEAN_MOTION_DDOT":"0.0000000000000","RCS_SIZE":"LARGE","DECAY_DATE":null,"MEAN_ANOMALY":"272.4958","TLE_LINE2":"2 47153  53.0544 191.9569 0001079  87.6155 272.4958 15.06392395102230","GP_ID":"213805464","TLE_LINE1":"1 47153U 20088AH  22272.19886949 -.00000423  00000-0 -95278-5 0  9994","REF_FRAME":"TEME","PERIAPSIS":"546.490","APOAPSIS":"547.984","CENTER_NAME":"EARTH","REV_AT_EPOCH":"10223","MEAN_MOTION_DOT":"-0.00000423","EPHEMERIS_TYPE":"0","TIME_SYSTEM":"UTC","OBJECT_TYPE":"PAYLOAD","LAUNCH_DATE":"2020-11-25","CLASSIFICATION_TYPE":"U","EPOCH":"2022-09-29T04:46:22.323936","RA_OF_ASC_NODE":"191.9569","FILE":"3586894","ECCENTRICITY":"0.00010790","ARG_OF_PERICENTER":"87.6155","MEAN_ELEMENT_THEORY":"SGP4","INCLINATION":"53.0544","SEMIMAJOR_AXIS":"6925.372","NORAD_CAT_ID":"47153","COUNTRY_CODE":"US"},{"OBJECT_TYPE":"PAYLOAD","LAUNCH_DATE":"2020-11-25","EPOCH":"2022-09-29T10:30:39.720672","CLASSIFICATION_TYPE":"U","RA_OF_ASC_NODE":"175.6308","REF_FRAME":"TEME","PERIAPSIS":"546.197","APOAPSIS":"548.254","CENTER_NAME":"EARTH","MEAN_MOTION_DOT":"0.00001510","REV_AT_EPOCH":"10248","EPHEMERIS_TYPE":"0","TIME_SYSTEM":"UTC","MEAN_ELEMENT_THEORY":"SGP4","INCLINATION":"53.0548","SEMIMAJOR_AXIS":"6925.361","NORAD_CAT_ID":"47154","COUNTRY_CODE":"US","FILE":"3586894","ECCENTRICITY":"0.00014850","ARG_OF_PERICENTER":"78.7931","BSTAR":"0.00012024000000","SITE":"AFETR","PERIOD":"95.592","MEAN_MOTION":"15.06396012","ELEMENT_SET_NO":"999","OBJECT_NAME":"STARLINK-1868","MEAN_MOTION_DDOT":"0.0000000000000","OBJECT_ID":"2020-088AJ","MEAN_ANOMALY":"281.3225","TLE_LINE2":"2 47154  53.0548 175.6308 0001485  78.7931 281.3225 15.06396012102482","GP_ID":"213804212","TLE_LINE1":"1 47154U 20088AJ  22272.43795973  .00001510  00000-0  12024-3 0  9990","RCS_SIZE":"LARGE","DECAY_DATE":null},{"EPHEMERIS_TYPE":"0","REV_AT_EPOCH":"10216","MEAN_MOTION_DOT":"-0.00002803","TIME_SYSTEM":"UTC","PERIAPSIS":"546.209","REF_FRAME":"TEME","CENTER_NAME":"EARTH","APOAPSIS":"548.175","EPOCH":"2022-09-29T04:58:55.941024","RA_OF_ASC_NODE":"196.6898","CLASSIFICATION_TYPE":"U","OBJECT_TYPE":"PAYLOAD","LAUNCH_DATE":"2020-11-25","ECCENTRICITY":"0.00014190","ARG_OF_PERICENTER":"70.9944","FILE":"3586894","NORAD_CAT_ID":"47155","COUNTRY_CODE":"US","MEAN_ELEMENT_THEORY":"SGP4","INCLINATION":"53.0551","SEMIMAJOR_AXIS":"6925.327","OBJECT_ID":"2020-088AK","MEAN_MOTION":"15.06407013","PERIOD":"95.592","SITE":"AFETR","MEAN_MOTION_DDOT":"0.0000000000000","OBJECT_NAME":"STARLINK-1869","ELEMENT_SET_NO":"999","BSTAR":"-0.00016934000000","DECAY_DATE":null,"RCS_SIZE":"LARGE","GP_ID":"213804462","TLE_LINE1":"1 47155U 20088AK  22272.20759191 -.00002803  00000-0 -16934-3 0  9990","TLE_LINE2":"2 47155  53.0551 196.6898 0001419  70.9944 289.1199 15.06407013102164","MEAN_ANOMALY":"289.1199"}];
